     2              NAVIGATION DATA                         RINEX VERSION / TYPE
CCRINEXN V1.6.0 UX  CDDIS               05-JUL-16 15:33     PGM / RUN BY / DATE 
IGS BROADCAST EPHEMERIS FILE                                COMMENT             
    0.4657D-08  0.1490D-07 -0.5960D-07 -0.1192D-06          ION ALPHA           
    0.8192D+05  0.8192D+05 -0.6554D+05 -0.5243D+06          ION BETA            
    0.931322574615D-09 0.621724893790D-14   319488     1904 DELTA-UTC: A0,A1,T,W
    17                                                      LEAP SECONDS        
                                                            END OF HEADER       
19 16  7  4  1 59 44.0-0.525177922100D-03 0.227373675443D-12 0.000000000000D+00
    0.700000000000D+01-0.148093750000D+03 0.408802742561D-08-0.294330751852D+01
   -0.779516994953D-05 0.107781486586D-01 0.650808215141D-05 0.515363295746D+04
    0.935840000000D+05-0.558793544769D-08 0.241497010159D+01-0.212341547012D-06
    0.974061194724D+00 0.262281250000D+03 0.807042242652D+00-0.783282626865D-08
   -0.152506352502D-09 0.100000000000D+01 0.190400000000D+04 0.000000000000D+00
    0.200000000000D+01 0.000000000000D+00-0.149011611938D-07 0.700000000000D+01
    0.864000000000D+05 0.400000000000D+01 0.000000000000D+00 0.000000000000D+00
20 16  7  4  1 59 44.0 0.422189012170D-03 0.227373675443D-11 0.000000000000D+00
    0.110000000000D+02 0.266562500000D+02 0.595417658678D-08-0.597996136734D+00
    0.148266553879D-05 0.456064590253D-02 0.502727925777D-05 0.515374948120D+04
    0.935840000000D+05-0.726431608200D-07-0.195437979332D+01-0.204890966415D-07
    0.925931058254D+00 0.263656250000D+03 0.138938046729D+01-0.877679416014D-08
    0.304655547269D-09 0.100000000000D+01 0.190400000000D+04 0.000000000000D+00
    0.200000000000D+01 0.000000000000D+00-0.838190317154D-08 0.110000000000D+02
    0.891300000000D+05 0.400000000000D+01 0.000000000000D+00 0.000000000000D+00
28 16  7  4  1 59 44.0 0.534666236490D-03 0.272848410532D-11 0.000000000000D+00
    0.660000000000D+02 0.543750000000D+02 0.420731810883D-08 0.103315490010D+01
    0.254437327385D-05 0.197557109641D-01 0.100955367088D-05 0.515362468910D+04
    0.935840000000D+05-0.298023223877D-06 0.134962198632D+01-0.176951289177D-06
    0.989241079325D+00 0.375781250000D+03-0.161463002647D+01-0.851142596363D-08
    0.162863926793D-09 0.000000000000D+00 0.190400000000D+04 0.000000000000D+00
    0.200000000000D+01 0.000000000000D+00-0.111758708954D-07 0.660000000000D+02
    0.864000000000D+05 0.400000000000D+01 0.000000000000D+00 0.000000000000D+00
30 16  7  4  1 59 44.0 0.137396622449D-03 0.250111042988D-11 0.000000000000D+00
    0.000000000000D+00 0.122531250000D+03 0.433553773541D-08-0.248827721035D+01
    0.636652112007D-05 0.226632715203D-02 0.107288360596D-04 0.515359358406D+04
    0.935840000000D+05 0.204890966415D-07 0.292552508363D+00-0.130385160446D-07
    0.952142581337D+00 0.168375000000D+03 0.306714003170D+01-0.791604402072D-08
    0.478591363823D-10 0.000000000000D+00 0.190400000000D+04 0.000000000000D+00
    0.200000000000D+01 0.000000000000D+00 0.325962901115D-08 0.000000000000D+00
    0.887400000000D+05 0.400000000000D+01 0.000000000000D+00 0.000000000000D+00
31 16  7  4  1 59 44.0 0.260701868683D-03-0.193267624127D-11 0.000000000000D+00
    0.130000000000D+02 0.146718750000D+03 0.384408869315D-08-0.273983829623D+01
    0.748224556446D-05 0.814819568768D-02 0.110249966383D-04 0.515378420258D+04
    0.935840000000D+05-0.521540641785D-07 0.258476030473D+00 0.912696123123D-07
    0.971185870201D+00 0.174000000000D+03-0.395046093838D+00-0.764996150875D-08
   -0.303584074067D-10 0.100000000000D+01 0.190400000000D+04 0.000000000000D+00
    0.200000000000D+01 0.000000000000D+00-0.135041773319D-07 0.130000000000D+02
    0.886800000000D+05 0.400000000000D+01 0.000000000000D+00 0.000000000000D+00
32 16  7  4  1 59 44.0-0.392780639231D-04-0.943600753089D-11 0.000000000000D+00
    0.100000000000D+02-0.161250000000D+02 0.471448213801D-08 0.572788740139D+00
   -0.754371285439D-06 0.557094463147D-03 0.887736678124D-05 0.515361915016D+04
    0.935840000000D+05 0.800937414169D-07-0.827202637704D+00-0.931322574616D-08
    0.959321427565D+00 0.207218750000D+03-0.232330406582D+01-0.800926258648D-08
   -0.822534262923D-09 0.100000000000D+01 0.190400000000D+04 0.000000000000D+00
    0.200000000000D+01 0.000000000000D+00 0.465661287308D-09 0.100000000000D+02
    0.864000000000D+05 0.000000000000D+00 0.000000000000D+00 0.000000000000D+00
 1 16  7  4  2  0  0.0 0.257310457528D-04 0.125055521494D-11 0.000000000000D+00
    0.730000000000D+02-0.510625000000D+02 0.426089176896D-08-0.187445380534D+01
   -0.281631946564D-05 0.566354114562D-02 0.120680779219D-04 0.515364629173D+04
    0.936000000000D+05 0.111758708954D-06-0.290965560139D+01-0.428408384323D-07
    0.965085621770D+00 0.147906250000D+03 0.486057542522D+00-0.767639118108D-08
    0.635383609135D-09 0.000000000000D+00 0.190400000000D+04 0.000000000000D+00
    0.200000000000D+01 0.000000000000D+00 0.512227416039D-08 0.730000000000D+02
    0.864000000000D+05 0.400000000000D+01 0.000000000000D+00 0.000000000000D+00
 2 16  7  4  2  0  0.0 0.580064021051D-03-0.375166564481D-11 0.000000000000D+00
    0.530000000000D+02-0.342187500000D+02 0.476769859378D-08-0.149221019330D+01
   -0.164099037647D-05 0.157821641769D-01 0.117551535368D-04 0.515359403801D+04
    0.936000000000D+05 0.331550836563D-06-0.295596942559D+01 0.132247805595D-06
    0.943886834298D+00 0.139562500000D+03-0.210456368455D+01-0.787068498848D-08
    0.541808282776D-09 0.100000000000D+01 0.190400000000D+04 0.000000000000D+00
    0.200000000000D+01 0.000000000000D+00-0.200234353542D-07 0.530000000000D+02
    0.864000000000D+05 0.400000000000D+01 0.000000000000D+00 0.000000000000D+00
 4 16  7  4  2  0  0.0-0.258624088019D-03 0.000000000000D+00 0.000000000000D+00
    0.260000000000D+02 0.612187500000D+02 0.556773191838D-08 0.131790293800D+01
    0.307150185108D-05 0.849136477336D-02 0.420957803726D-06 0.515365370941D+04
    0.936000000000D+05-0.126659870148D-06 0.129633689665D+01-0.242143869400D-07
    0.983013122534D+00 0.383625000000D+03 0.901031150947D+00-0.844749472921D-08
    0.153577825704D-09 0.100000000000D+01 0.190400000000D+04 0.000000000000D+00
    0.280000000000D+01 0.630000000000D+02-0.195577740669D-07 0.260000000000D+02
    0.875400000000D+05 0.400000000000D+01 0.000000000000D+00 0.000000000000D+00
 5 16  7  4  2  0  0.0-0.108064617962D-03 0.284217094304D-11 0.000000000000D+00
    0.780000000000D+02 0.249375000000D+02 0.554523098113D-08 0.997763449035D+00
    0.156089663506D-05 0.456153356936D-02 0.496953725815D-05 0.515353711128D+04
    0.936000000000D+05 0.102445483208D-06-0.188066564955D+01 0.298023223877D-07
    0.945941360838D+00 0.274125000000D+03 0.453075175211D+00-0.857214277844D-08
    0.192508018732D-09 0.100000000000D+01 0.190400000000D+04 0.000000000000D+00
    0.200000000000D+01 0.000000000000D+00-0.107102096081D-07 0.780000000000D+02
    0.864000000000D+05 0.400000000000D+01 0.000000000000D+00 0.000000000000D+00
 6 16  7  4  2  0  0.0 0.213670544326D-03 0.534328137292D-11 0.000000000000D+00
    0.720000000000D+02-0.418125000000D+02 0.426839208138D-08-0.167616474233D+01
   -0.207498669624D-05 0.356660690159D-03 0.118669122458D-04 0.515372911072D+04
    0.936000000000D+05-0.167638063431D-07-0.291807549955D+01-0.242143869400D-07
    0.964912903810D+00 0.155812500000D+03-0.129326828115D+01-0.770210653794D-08
    0.530736393015D-09 0.000000000000D+00 0.190400000000D+04 0.000000000000D+00
    0.200000000000D+01 0.000000000000D+00 0.419095158577D-08 0.720000000000D+02
    0.914100000000D+05 0.400000000000D+01 0.000000000000D+00 0.000000000000D+00
 7 16  7  4  2  0  0.0 0.444363802671D-03-0.250111042988D-11 0.000000000000D+00
    0.760000000000D+02 0.123843750000D+03 0.389266214500D-08-0.258880268093D+01
    0.629946589470D-05 0.970216747373D-02 0.113006681204D-04 0.515364758682D+04
    0.936000000000D+05-0.204890966415D-07 0.248964131270D+00-0.949949026108D-07
    0.966375586359D+00 0.164062500000D+03-0.266683361068D+01-0.758995900940D-08
    0.578595529398D-10 0.000000000000D+00 0.190400000000D+04 0.000000000000D+00
    0.200000000000D+01 0.000000000000D+00-0.111758708954D-07 0.760000000000D+02
    0.864000000000D+05 0.400000000000D+01 0.000000000000D+00 0.000000000000D+00
 8 16  7  4  2  0  0.0-0.414149835706D-04-0.147792889038D-11 0.000000000000D+00
    0.230000000000D+02-0.152718750000D+03 0.439554023475D-08 0.106689304893D+01
   -0.781379640102D-05 0.170106079895D-02 0.474229454994D-05 0.515371906471D+04
    0.936000000000D+05 0.614672899246D-07 0.231317718658D+01-0.447034835815D-07
    0.963716928781D+00 0.289437500000D+03-0.104570623544D+01-0.824034324337D-08
   -0.232509684962D-09 0.000000000000D+00 0.190400000000D+04 0.000000000000D+00
    0.200000000000D+01 0.000000000000D+00 0.465661287308D-08 0.230000000000D+02
    0.864000000000D+05 0.400000000000D+01 0.000000000000D+00 0.000000000000D+00
 9 16  7  4  2  0  0.0 0.160726252943D-03 0.727595761418D-11 0.000000000000D+00
    0.890000000000D+02-0.300625000000D+02 0.477841332581D-08-0.179459521106D+00
   -0.160560011864D-05 0.526719260961D-03 0.865757465363D-05 0.515354603577D+04
    0.936000000000D+05-0.223517417908D-07-0.828785177132D+00-0.391155481338D-07
    0.954734074884D+00 0.209750000000D+03 0.239411508816D+01-0.804319217410D-08
   -0.797533220460D-09 0.000000000000D+00 0.190400000000D+04 0.000000000000D+00
    0.200000000000D+01 0.000000000000D+00 0.139698386192D-08 0.890000000000D+02
    0.912300000000D+05 0.400000000000D+01 0.000000000000D+00 0.000000000000D+00
